[
  {
    "name": "STARLINK-11487 [DTC]",
    "noradId": "62278",
    "line1": "1 62278U 24237M   26175.29855312  .00170165  00000+0  13006-2 0  9990",
    "line2": "2 62278  43.0019 134.4913 0002460 256.4964 103.5629 15.70876278 89810"
  },
  {
    "name": "STARLINK-11499 [DTC]",
    "noradId": "62279",
    "line1": "1 62279U 24237N   26176.00949848  .00165808  00000+0  12692-2 0  9997",
    "line2": "2 62279  43.0009 130.3677 0006870 296.2418  63.7744 15.70830844 89855"
  },
  {
    "name": "STARLINK-33548",
    "noradId": "62280",
    "line1": "1 62280U 24237P   26175.70244358  .00015167  00000+0  55967-3 0  9994",
    "line2": "2 62280  42.9986 321.1559 0002077 272.1904  87.8710 15.27572817 87680"
  },
  {
    "name": "STARLINK-33544",
    "noradId": "62281",
    "line1": "1 62281U 24237Q   26176.14852954  .00024401  00000+0  89266-3 0  9991",
    "line2": "2 62281  43.0074 329.7279 0004006 265.2519  94.7875 15.27599590 87623"
  },
  {
    "name": "STARLINK-33560",
    "noradId": "62282",
    "line1": "1 62282U 24237R   26175.73823468  .00017144  00000+0  63076-3 0  9991",
    "line2": "2 62282  43.0015 331.8031 0000253  90.0961 269.9920 15.27595188 87473"
  },
  {
    "name": "STARLINK-33547",
    "noradId": "62283",
    "line1": "1 62283U 24237S   26175.82933724  .00033065  00000+0  12051-2 0  9995",
    "line2": "2 62283  43.0013 320.3827 0001773 276.6387  83.4263 15.27595885 87709"
  },
  {
    "name": "STARLINK-33563",
    "noradId": "62284",
    "line1": "1 62284U 24237T   26175.74465708  .00015879  00000+0  58506-3 0  9998",
    "line2": "2 62284  43.0026 331.8514 0001052 277.1034  82.9698 15.27594544 87560"
  },
  {
    "name": "STARLINK-33550",
    "noradId": "62285",
    "line1": "1 62285U 24237U   26175.86514860  .00018005  00000+0  66182-3 0  9999",
    "line2": "2 62285  43.0027 331.0348 0001257 280.5843  79.4867 15.27600141 87584"
  },
  {
    "name": "STARLINK-33564",
    "noradId": "62286",
    "line1": "1 62286U 24237V   26175.16003007  .00012838  00000+0  47499-3 0  9997",
    "line2": "2 62286  43.0056 335.2061 0001928 268.5396  91.5235 15.27597942 87475"
  },
  {
    "name": "STARLINK-33546",
    "noradId": "62287",
    "line1": "1 62287U 24237W   26175.74081645  .00007340  00000+0  27616-3 0  9997",
    "line2": "2 62287  42.9972 331.8227 0000999 279.9405  80.1334 15.27557334 87476"
  },
  {
    "name": "STARLINK-33565",
    "noradId": "62288",
    "line1": "1 62288U 24237X   26175.66901198  .00017273  00000+0  63555-3 0  9991",
    "line2": "2 62288  43.0008 320.8975 0001475 280.9306  79.1379 15.27589646 87680"
  },
  {
    "name": "STARLINK-33549",
    "noradId": "62289",
    "line1": "1 62289U 24237Y   26175.16388657  .00014021  00000+0  51784-3 0  9995",
    "line2": "2 62289  43.0057 335.2328 0001660 264.8291  95.2372 15.27593934 87471"
  },
  {
    "name": "STARLINK-32648",
    "noradId": "62301",
    "line1": "1 62301U 24239A   26176.23269360  .00030580  00000+0  91185-3 0  9997",
    "line2": "2 62301  53.1600  41.3038 0000741  86.5671 273.5416 15.34423156 86032"
  },
  {
    "name": "STARLINK-32594",
    "noradId": "62302",
    "line1": "1 62302U 24239B   26176.38617834  .00032123  00000+0  95734-3 0  9996",
    "line2": "2 62302  53.1594  50.6336 0001149  78.3834 281.7298 15.34415158 85910"
  },
  {
    "name": "STARLINK-32621",
    "noradId": "62303",
    "line1": "1 62303U 24239C   26175.26182210  .00093587  00000+0  28282-2 0  9992",
    "line2": "2 62303  53.1586  45.9061 0001001  75.1053 285.0060 15.33474287 85886"
  },
  {
    "name": "STARLINK-32597",
    "noradId": "62304",
    "line1": "1 62304U 24239D   26176.57731494  .00040674  00000+0  12076-2 0  9995",
    "line2": "2 62304  53.1602  39.8975 0001837 296.5610  63.5204 15.34421144 86084"
  },
  {
    "name": "STARLINK-32649",
    "noradId": "62305",
    "line1": "1 62305U 24239E   26176.36572113  .00042704  00000+0  12673-2 0  9993",
    "line2": "2 62305  53.1602  52.7877 0001730  75.7677 284.3518 15.34412599 85884"
  },
  {
    "name": "STARLINK-32633",
    "noradId": "62306",
    "line1": "1 62306U 24239F   26175.94974606  .00038201  00000+0  11349-2 0  9996",
    "line2": "2 62306  53.1593  55.1606 0001222  80.5162 279.5979 15.34431046 85818"
  },
  {
    "name": "STARLINK-32646",
    "noradId": "62307",
    "line1": "1 62307U 24239G   26175.91316419  .00025373  00000+0  86540-3 0  9998",
    "line2": "2 62307  53.1593  42.8619 0000729  78.6703 281.4380 15.30217461 85981"
  },
  {
    "name": "STARLINK-32706",
    "noradId": "62308",
    "line1": "1 62308U 24239H   26176.35107025  .00035651  00000+0  10622-2 0  9996",
    "line2": "2 62308  53.1588  53.4009 0001379  56.6614 303.4521 15.34373691 85878"
  },
  {
    "name": "STARLINK-32678",
    "noradId": "62309",
    "line1": "1 62309U 24239J   26176.33836841  .00039445  00000+0  11509-2 0  9990",
    "line2": "2 62309  53.1587  40.5356 0001517 181.7760 178.3238 15.34983533 86053"
  },
  {
    "name": "STARLINK-32696",
    "noradId": "62310",
    "line1": "1 62310U 24239K   26176.35730309  .00044653  00000+0  13237-2 0  9993",
    "line2": "2 62310  53.1576  52.7343 0001430  64.1563 295.9587 15.34427300 85881"
  },
  {
    "name": "STARLINK-32700",
    "noradId": "62311",
    "line1": "1 62311U 24239L   26175.98477784  .00044537  00000+0  13206-2 0  9994",
    "line2": "2 62311  53.1604  42.5964 0000730 111.0256 249.0825 15.34420882 85987"
  },
  {
    "name": "STARLINK-32698",
    "noradId": "62312",
    "line1": "1 62312U 24239M   26175.98121633  .00020636  00000+0  61978-3 0  9998",
    "line2": "2 62312  53.1592  54.6491 0000916  93.7139 266.3968 15.34421558 85829"
  },
  {
    "name": "STARLINK-32634",
    "noradId": "62313",
    "line1": "1 62313U 24239N   26175.91633305  .00029794  00000+0  10133-2 0  9996",
    "line2": "2 62313  53.1581  42.8805 0000964  85.2683 274.8427 15.30224917 85986"
  },
  {
    "name": "STARLINK-32651",
    "noradId": "62314",
    "line1": "1 62314U 24239P   26175.95605859  .00034687  00000+0  10325-2 0  9994",
    "line2": "2 62314  53.1598  55.1971 0001291  78.3697 281.7451 15.34414639 85810"
  },
  {
    "name": "STARLINK-32627",
    "noradId": "62315",
    "line1": "1 62315U 24239Q   26175.95395192  .00041367  00000+0  12275-2 0  9990",
    "line2": "2 62315  53.1594  55.1460 0001221  74.6978 285.4160 15.34430985 85814"
  },
  {
    "name": "STARLINK-32596",
    "noradId": "62316",
    "line1": "1 62316U 24239R   26176.36151260  .00038931  00000+0  11569-2 0  9991",
    "line2": "2 62316  53.1574  52.7586 0001212  89.8489 270.2653 15.34414089 85883"
  },
  {
    "name": "STARLINK-32519",
    "noradId": "62317",
    "line1": "1 62317U 24239S   26176.34570895  .00035925  00000+0  11629-2 0  9996",
    "line2": "2 62317  53.1607  40.5812 0001458  81.0556 279.0610 15.31725813 86056"
  },
  {
    "name": "STARLINK-32527",
    "noradId": "62319",
    "line1": "1 62319U 24239U   26176.35037313  .00030765  00000+0  99803-3 0  9990",
    "line2": "2 62319  53.1606  40.6102 0000400  15.5677 344.5337 15.31733648 86051"
  }
]