OBJECT_NAME,OBJECT_ID,EPOCH,MEAN_MOTION,ECCENTRICITY,INCLINATION,RA_OF_ASC_NODE,ARG_OF_PERICENTER,MEAN_ANOMALY,EPHEMERIS_TYPE,CLASSIFICATION_TYPE,NORAD_CAT_ID,ELEMENT_SET_NO,REV_AT_EPOCH,BSTAR,MEAN_MOTION_DOT,MEAN_MOTION_DDOT
STARLINK-11487 [DTC],2024-237M,2026-06-24T07:09:54.989568,15.70876278,.000246,43.0019,134.4913,256.4964,103.5629,0,U,62278,999,8981,.13006133E-2,.170165E-2,0
STARLINK-11499 [DTC],2024-237N,2026-06-25T00:13:40.668672,15.70830844,.000687,43.0009,130.3677,296.2418,63.7744,0,U,62279,999,8985,.12692493E-2,.165808E-2,0
STARLINK-33548,2024-237P,2026-06-24T16:51:31.125312,15.27572817,.00020777,42.9986,321.1559,272.1904,87.8710,0,U,62280,999,8768,.55966673E-3,.15167E-3,0
STARLINK-33544,2024-237Q,2026-06-25T03:33:52.952256,15.27599590,.00040066,43.0074,329.7279,265.2519,94.7875,0,U,62281,999,8762,.89265729E-3,.24401E-3,0
STARLINK-33560,2024-237R,2026-06-24T17:43:03.476352,15.27595188,.00002536,43.0015,331.8031,90.0961,269.9920,0,U,62282,999,8747,.63076196E-3,.17144E-3,0
STARLINK-33547,2024-237S,2026-06-24T19:54:14.737536,15.27595885,.00017732,43.0013,320.3827,276.6387,83.4263,0,U,62283,999,8770,.12051158E-2,.33065E-3,0
STARLINK-33563,2024-237T,2026-06-24T17:52:18.371712,15.27594544,.00010522,43.0026,331.8514,277.1034,82.9698,0,U,62284,999,8756,.58505575E-3,.15879E-3,0
STARLINK-33550,2024-237U,2026-06-24T20:45:48.839040,15.27600141,.0001257,43.0027,331.0348,280.5843,79.4867,0,U,62285,999,8758,.66182114E-3,.18005E-3,0
STARLINK-33564,2024-237V,2026-06-24T03:50:26.598048,15.27597942,.00019283,43.0056,335.2061,268.5396,91.5235,0,U,62286,999,8747,.47498721E-3,.12838E-3,0
STARLINK-33546,2024-237W,2026-06-24T17:46:46.541280,15.27557334,.00009993,42.9972,331.8227,279.9405,80.1334,0,U,62287,999,8747,.27616367E-3,.734E-4,0
STARLINK-33565,2024-237X,2026-06-24T16:03:22.635072,15.27589646,.00014758,43.0008,320.8975,280.9306,79.1379,0,U,62288,999,8768,.63555368E-3,.17273E-3,0
STARLINK-33549,2024-237Y,2026-06-24T03:55:59.799648,15.27593934,.00016603,43.0057,335.2328,264.8291,95.2372,0,U,62289,999,8747,.51784152E-3,.14021E-3,0
STARLINK-32648,2024-239A,2026-06-25T05:35:04.727040,15.34423156,.00007416,53.1600,41.3038,86.5671,273.5416,0,U,62301,999,8603,.91184791E-3,.3058E-3,0
STARLINK-32594,2024-239B,2026-06-25T09:16:05.808576,15.34415158,.00011491,53.1594,50.6336,78.3834,281.7298,0,U,62302,999,8591,.95733653E-3,.32123E-3,0
STARLINK-32621,2024-239C,2026-06-24T06:17:01.429440,15.33474287,.0001001,53.1586,45.9061,75.1053,285.0060,0,U,62303,999,8588,.28282305E-2,.93587E-3,0
STARLINK-32597,2024-239D,2026-06-25T13:51:20.010816,15.34421144,.00018376,53.1602,39.8975,296.5610,63.5204,0,U,62304,999,8608,.12075974E-2,.40674E-3,0
STARLINK-32649,2024-239E,2026-06-25T08:46:38.305632,15.34412599,.00017306,53.1602,52.7877,75.7677,284.3518,0,U,62305,999,8588,.12673226E-2,.42704E-3,0
STARLINK-32633,2024-239F,2026-06-24T22:47:38.059584,15.34431046,.0001222,53.1593,55.1606,80.5162,279.5979,0,U,62306,999,8581,.11348774E-2,.38201E-3,0
STARLINK-32646,2024-239G,2026-06-24T21:54:57.386016,15.30217461,.00007293,53.1593,42.8619,78.6703,281.4380,0,U,62307,999,8598,.86540494E-3,.25373E-3,0
STARLINK-32706,2024-239H,2026-06-25T08:25:32.469600,15.34373691,.00013795,53.1588,53.4009,56.6614,303.4521,0,U,62308,999,8587,.10621657E-2,.35651E-3,0
STARLINK-32678,2024-239J,2026-06-25T08:07:15.030624,15.34983533,.00015178,53.1587,40.5356,181.7760,178.3238,0,U,62309,999,8605,.11509241E-2,.39445E-3,0
STARLINK-32696,2024-239K,2026-06-25T08:34:30.986976,15.34427300,.00014307,53.1576,52.7343,64.1563,295.9587,0,U,62310,999,8588,.13237182E-2,.44653E-3,0
STARLINK-32700,2024-239L,2026-06-24T23:38:04.805376,15.34420882,.00007304,53.1604,42.5964,111.0256,249.0825,0,U,62311,999,8598,.13205922E-2,.44537E-3,0
STARLINK-32698,2024-239M,2026-06-24T23:32:57.090912,15.34421558,.00009165,53.1592,54.6491,93.7139,266.3968,0,U,62312,999,8582,.6197829E-3,.20636E-3,0
STARLINK-32634,2024-239N,2026-06-24T21:59:31.175520,15.30224917,.0000964,53.1581,42.8805,85.2683,274.8427,0,U,62313,999,8598,.1013271E-2,.29794E-3,0
STARLINK-32651,2024-239P,2026-06-24T22:56:43.462176,15.34414639,.00012911,53.1598,55.1971,78.3697,281.7451,0,U,62314,999,8581,.10325392E-2,.34687E-3,0
STARLINK-32627,2024-239Q,2026-06-24T22:53:41.445888,15.34430985,.00012212,53.1594,55.1460,74.6978,285.4160,0,U,62315,999,8581,.12275096E-2,.41367E-3,0
STARLINK-32596,2024-239R,2026-06-25T08:40:34.688640,15.34414089,.00012128,53.1574,52.7586,89.8489,270.2653,0,U,62316,999,8588,.11568749E-2,.38931E-3,0
STARLINK-32519,2024-239S,2026-06-25T08:17:49.253280,15.31725813,.00014583,53.1607,40.5812,81.0556,279.0610,0,U,62317,999,8605,.11629116E-2,.35925E-3,0
STARLINK-32527,2024-239U,2026-06-25T08:24:32.238432,15.31733648,.00004002,53.1606,40.6102,15.5677,344.5337,0,U,62319,999,8605,.99803165E-3,.30765E-3,0
